satname,norad_id,inclination_deg,eccentricity,mean_motion_rev_per_day,perigee_km,apogee_km,l1,l2
STARLINK-1484,45756,53.013,0.0003515,15.66453199,366.690970982595,371.434252309582,1 45756U 20038AC  25330.40603340  .00088067  00000+0  82663-3 0  9999,2 45756  53.0130 215.2572 0003515 112.7930 247.3456 15.66453199302377
STARLINK-1493,45759,53.055,0.0001119,15.0641319,546.396190802896,547.9460747630128,1 45759U 20038AF  25330.35212794  .00003055  00000+0  22382-3 0  9991,2 45759  53.0550 320.5166 0001119  91.2654 268.8463 15.06413190300899
STARLINK-1494,45760,53.0546,0.0005366,15.5379923,402.0051896175337,409.2855448540504,1 45760U 20038AG  25330.28555158  .00023811  00000+0  37053-3 0  9992,2 45760  53.0546 297.4817 0005366  85.0833 275.0789 15.53799230301222
STARLINK-1502,45764,53.0555,0.0001601,15.06411196,546.0685012128542,548.285986833791,1 45764U 20038AL  25330.38530245  .00005477  00000+0  38620-3 0  9996,2 45764  53.0555 320.3685 0001601  89.3674 270.7498 15.06411196300917
STARLINK-1470,45772,53.0478,0.0006002,15.19828681,502.22584995137277,510.48999765790813,1 45772U 20038AU  25330.62447958  .00058448  00000+0  26855-2 0  9992,2 45772  53.0478 289.5113 0006002  22.3593 337.7663 15.19828681301362
STARLINK-1482,45773,53.0548,0.0001831,15.06401015,545.9404163598456,548.4764778625777,1 45773U 20038AV  25330.61567483  .00000073  00000+0  23788-4 0  9993,2 45773  53.0548 299.3312 0001831  78.6368 281.4827 15.06401015301226
STARLINK-1496,45780,53.0538,0.0001422,15.06411138,546.1926420719947,548.1622014935501,1 45780U 20038BC  25330.18442048  .00009855  00000+0  67940-3 0  9996,2 45780  53.0538 301.2700 0001422  92.1296 267.9856 15.06411138301143
STARLINK-1497,45781,53.0361,0.0007172,15.62313942,376.12725386889724,385.8225239623571,1 45781U 20038BD  25330.91673610  .00120040  00000+0  13186-2 0  9991,2 45781  53.0361 233.6109 0007172  68.9006 232.5926 15.62313942  5724
STARLINK-1510,45784,53.0258,0.0004369,15.81716425,322.6576195788957,328.5153331525444,1 45784U 20038BG  25330.91673610  .00120722  00000+0  58313-3 0  9993,2 45784  53.0258 206.3671 0004369 144.7585 275.0037 15.81716425  6048
STARLINK-1513,45786,53.0555,0.0001488,15.06408434,546.1552210444897,548.2161970827065,1 45786U 20038BJ  25330.34659476  .00001119  00000+0  93961-4 0  9993,2 45786  53.0555 300.5441 0001488  86.6575 273.4584 15.06408434301181
STARLINK-1522,46027,53.0522,0.0001435,15.06406166,546.1988752945808,548.1864449070299,1 46027U 20055A   25330.72532889 -.00001953  00000+0 -11220-3 0  9996,2 46027  53.0522 228.8418 0001435  85.1917 274.9236 15.06406166293366
STARLINK-1523,46028,53.0536,0.000164,15.06407063,546.0541573317196,548.3256645585107,1 46028U 20055B   25330.74007963  .00001487  00000+0  11871-3 0  9991,2 46028  53.0536 228.7789 0001640 103.2961 256.8211 15.06407063293382
STARLINK-1526,46029,53.0532,0.0002245,15.06403859,545.6449925882862,548.7544687803629,1 46029U 20055C   25330.73271006  .00000296  00000+0  38800-4 0  9991,2 46029  53.0532 228.8082 0002245  97.7501 262.3743 15.06403859293375
STARLINK-1555,46032,53.0517,0.0001744,15.06415706,545.9556493350374,548.3711941221363,1 46032U 20055F   25330.71796044  .00004759  00000+0  33803-3 0  9992,2 46032  53.0517 228.8748 0001744  96.1781 263.9407 15.06415706293375
STARLINK-1556,46033,53.052,0.0002237,15.0640634,545.6429306938844,548.741322945225,1 46033U 20055G   25330.69953683 -.00000992  00000+0 -47652-4 0  9999,2 46033  53.0520 228.9586 0002237  81.5460 278.5783 15.06406340293341
STARLINK-1557,46034,53.0536,0.0001179,15.0638425,546.4433255542081,548.0763341266847,1 46034U 20055H   25330.43783360  .00001373  00000+0  11107-3 0  9992,2 46034  53.0536 230.1326 0001179  93.6419 266.4705 15.06384250293309
STARLINK-1558,46035,53.0539,0.000223,15.06403533,545.6563795095353,548.7450801370369,1 46035U 20055J   25330.71059748  .00002821  00000+0  20817-3 0  9997,2 46035  53.0539 228.9122 0002230  89.0700 271.0544 15.06403533293379
STARLINK-1560,46036,53.0537,0.0001819,15.06411544,545.9164629998813,548.4358919338438,1 46036U 20055K   25330.43045793  .00001846  00000+0  14274-3 0  9998,2 46036  53.0537 230.1698 0001819  79.3860 280.7333 15.06411544293332
STARLINK-1567,46038,53.0527,0.0002078,15.06408796,545.745517767914,548.6236814247068,1 46038U 20055M   25330.70690899  .00002504  00000+0  18694-3 0  9995,2 46038  53.0527 228.9251 0002078  94.8512 265.2715 15.06408796293367
STARLINK-1569,46039,53.0518,0.000174,15.06400015,546.0065013243557,548.4165226065197,1 46039U 20055N   25330.71428545  .00001513  00000+0  12045-3 0  9997,2 46039  53.0518 228.8948 0001740  94.8367 265.2821 15.06400015293367
STARLINK-1582,46043,53.0551,0.0001708,15.06404499,546.0149220069925,548.3806163641475,1 46043U 20055S   25330.45625959 -.00000749  00000+0 -31404-4 0  9994,2 46043  53.0551 230.0498 0001708  88.9987 271.1198 15.06404499293329
STARLINK-1591,46045,53.0538,0.0002375,15.06408305,545.5413401890564,548.8308686636583,1 46045U 20055U   25330.74744549 -.00001490  00000+0 -81106-4 0  9993,2 46045  53.0538 228.7438 0002375  83.9334 276.1925 15.06408305293352
STARLINK-1524,46047,53.0521,0.0001935,15.06403743,545.8600334799412,548.5401389323015,1 46047U 20055W   25330.70046352  .00008601  00000+0  59552-3 0  9996,2 46047  53.0521 218.9557 0001935 115.6343 244.4846 15.06403743293501
STARLINK-1527,46048,53.0511,0.00019,15.06377451,545.9648388807436,548.5964975946736,1 46048U 20055X   25330.69678774 -.00004044  00000+0 -25285-3 0  9999,2 46048  53.0511 218.9734 0001900  94.1922 265.9284 15.06377451293481
STARLINK-1540,46051,53.0523,0.0002222,15.06407588,545.6494946266857,548.7271091908542,1 46051U 20055AA  25330.66359045  .00000126  00000+0  27350-4 0  9998,2 46051  53.0523 219.1210 0002222  77.9671 282.1567 15.06407588293512
STARLINK-1541,46052,53.0508,0.0001746,15.06403398,545.9919795373871,548.4103076171241,1 46052U 20055AB  25330.71520117  .00000816  00000+0  73699-4 0  9998,2 46052  53.0508 218.8841 0001746 101.2327 258.8858 15.06403398293485
STARLINK-1543,46053,53.0527,8.42e-05,15.06398164,546.6340701971812,547.8002998419397,1 46053U 20055AC  25330.71887837 -.00004245  00000+0 -26626-3 0  9993,2 46053  53.0527 218.8698 0000842  53.8719 306.2347 15.06398164293519
STARLINK-1548,46054,53.0525,0.0001594,15.06404374,546.0942538674108,548.3020507139618,1 46054U 20055AD  25330.39451954  .00000137  00000+0  28093-4 0  9990,2 46054  53.0525 220.3270 0001594  92.8332 267.2839 15.06404374293468
